start=new Date('2022-07-22T00:00:00.000Z').valueOf();
sats=[{"MEAN_ELEMENT_THEORY":"SGP4","TLE_LINE1":"1 48436U 21040J   22202.82071189 -.00003404  00000-0 -20984-3 0  9995","GP_ID":"208604665","ECCENTRICITY":"0.00015100","ELEMENT_SET_NO":"999","NORAD_CAT_ID":"48436","TIME_SYSTEM":"UTC","EPHEMERIS_TYPE":"0","OBJECT_ID":"2021-040J","CLASSIFICATION_TYPE":"U","COUNTRY_CODE":"US","SITE":"AFETR","EPOCH":"2022-07-21T19:41:49.507296","BSTAR":"-0.00020984000000","APOAPSIS":"548.313","PERIOD":"95.593","MEAN_ANOMALY":"280.7616","PERIAPSIS":"546.221","REV_AT_EPOCH":"6663","ARG_OF_PERICENTER":"79.3543","TLE_LINE2":"2 48436  53.0563  18.1669 0001510  79.3543 280.7616 15.06382606 66636","FILE":"3519265","RCS_SIZE":"LARGE","INCLINATION":"53.0563","RA_OF_ASC_NODE":"18.1669","REF_FRAME":"TEME","SEMIMAJOR_AXIS":"6925.402","OBJECT_TYPE":"PAYLOAD","MEAN_MOTION_DDOT":"0.0000000000000","OBJECT_NAME":"STARLINK-2639","DECAY_DATE":null,"CENTER_NAME":"EARTH","MEAN_MOTION_DOT":"-0.00003404","LAUNCH_DATE":"2021-05-09","MEAN_MOTION":"15.06382606"},{"EPHEMERIS_TYPE":"0","COUNTRY_CODE":"US","CLASSIFICATION_TYPE":"U","OBJECT_ID":"2021-040K","PERIOD":"95.593","APOAPSIS":"548.314","PERIAPSIS":"546.178","MEAN_ANOMALY":"292.8412","SITE":"AFETR","BSTAR":"-0.00000238460000","EPOCH":"2022-07-21T20:54:48.760416","TLE_LINE1":"1 48437U 21040K   22202.87139769 -.00000317  00000-0 -23846-5 0  9992","MEAN_ELEMENT_THEORY":"SGP4","GP_ID":"208604411","TIME_SYSTEM":"UTC","ELEMENT_SET_NO":"999","NORAD_CAT_ID":"48437","ECCENTRICITY":"0.00015420","SEMIMAJOR_AXIS":"6925.381","REF_FRAME":"TEME","RA_OF_ASC_NODE":"27.9294","CENTER_NAME":"EARTH","DECAY_DATE":null,"LAUNCH_DATE":"2021-05-09","MEAN_MOTION":"15.06389302","MEAN_MOTION_DOT":"-0.00000317","OBJECT_TYPE":"PAYLOAD","OBJECT_NAME":"STARLINK-2642","MEAN_MOTION_DDOT":"0.0000000000000","ARG_OF_PERICENTER":"67.2740","REV_AT_EPOCH":"6650","RCS_SIZE":"LARGE","INCLINATION":"53.0575","TLE_LINE2":"2 48437  53.0575  27.9294 0001542  67.2740 292.8412 15.06389302 66506","FILE":"3519265"},{"GP_ID":"208603170","ELEMENT_SET_NO":"999","NORAD_CAT_ID":"48438","TIME_SYSTEM":"UTC","ECCENTRICITY":"0.00014580","MEAN_ELEMENT_THEORY":"SGP4","TLE_LINE1":"1 48438U 21040L   22202.81703096 -.00002020  00000-0 -11678-3 0  9998","SITE":"AFETR","EPOCH":"2022-07-21T19:36:31.474944","BSTAR":"-0.00011678000000","APOAPSIS":"548.240","PERIOD":"95.592","MEAN_ANOMALY":"285.2941","PERIAPSIS":"546.221","EPHEMERIS_TYPE":"0","OBJECT_ID":"2021-040L","CLASSIFICATION_TYPE":"U","COUNTRY_CODE":"US","TLE_LINE2":"2 48438  53.0552  18.1784 0001458  74.8209 285.2941 15.06394449 66633","FILE":"3519265","RCS_SIZE":"LARGE","INCLINATION":"53.0552","REV_AT_EPOCH":"6663","ARG_OF_PERICENTER":"74.8209","OBJECT_TYPE":"PAYLOAD","MEAN_MOTION_DDOT":"0.0000000000000","OBJECT_NAME":"STARLINK-2640","DECAY_DATE":null,"CENTER_NAME":"EARTH","MEAN_MOTION_DOT":"-0.00002020","LAUNCH_DATE":"2021-05-09","MEAN_MOTION":"15.06394449","RA_OF_ASC_NODE":"18.1784","REF_FRAME":"TEME","SEMIMAJOR_AXIS":"6925.366"},{"TLE_LINE2":"2 48439  53.0538  18.4973 0001709  93.7433 266.3751 15.06395363 66623","FILE":"3519265","RCS_SIZE":"MEDIUM","INCLINATION":"53.0538","REV_AT_EPOCH":"6662","ARG_OF_PERICENTER":"93.7433","OBJECT_TYPE":"PAYLOAD","OBJECT_NAME":"STARLINK-2583","MEAN_MOTION_DDOT":"0.0000000000000","CENTER_NAME":"EARTH","DECAY_DATE":null,"MEAN_MOTION":"15.06395363","LAUNCH_DATE":"2021-05-09","MEAN_MOTION_DOT":"-0.00002131","SEMIMAJOR_AXIS":"6925.363","REF_FRAME":"TEME","RA_OF_ASC_NODE":"18.4973","GP_ID":"208603420","ELEMENT_SET_NO":"999","NORAD_CAT_ID":"48439","ECCENTRICITY":"0.00017090","TIME_SYSTEM":"UTC","MEAN_ELEMENT_THEORY":"SGP4","TLE_LINE1":"1 48439U 21040M   22202.74699658 -.00002131  00000-0 -12418-3 0  9995","SITE":"AFETR","EPOCH":"2022-07-21T17:55:40.504512","BSTAR":"-0.00012418000000","PERIOD":"95.592","APOAPSIS":"548.411","PERIAPSIS":"546.044","MEAN_ANOMALY":"266.3751","EPHEMERIS_TYPE":"0","COUNTRY_CODE":"US","OBJECT_ID":"2021-040M","CLASSIFICATION_TYPE":"U"},{"TLE_LINE1":"1 48440U 21040N   22202.80966487 -.00002478  00000-0 -14759-3 0  9995","MEAN_ELEMENT_THEORY":"SGP4","ELEMENT_SET_NO":"999","TIME_SYSTEM":"UTC","NORAD_CAT_ID":"48440","ECCENTRICITY":"0.00013390","GP_ID":"208604165","COUNTRY_CODE":"US","CLASSIFICATION_TYPE":"U","OBJECT_ID":"2021-040N","EPHEMERIS_TYPE":"0","PERIAPSIS":"546.331","MEAN_ANOMALY":"257.1716","PERIOD":"95.593","APOAPSIS":"548.186","BSTAR":"-0.00014759000000","EPOCH":"2022-07-21T19:25:55.044768","SITE":"AFETR","ARG_OF_PERICENTER":"102.9423","REV_AT_EPOCH":"6663","INCLINATION":"53.0545","RCS_SIZE":"LARGE","FILE":"3519265","TLE_LINE2":"2 48440  53.0545  18.2127 0001339 102.9423 257.1716 15.06385348 66635","SEMIMAJOR_AXIS":"6925.393","REF_FRAME":"TEME","RA_OF_ASC_NODE":"18.2127","LAUNCH_DATE":"2021-05-09","MEAN_MOTION":"15.06385348","MEAN_MOTION_DOT":"-0.00002478","CENTER_NAME":"EARTH","DECAY_DATE":null,"OBJECT_NAME":"STARLINK-2682","MEAN_MOTION_DDOT":"0.0000000000000","OBJECT_TYPE":"PAYLOAD"},{"MEAN_MOTION_DDOT":"0.0000000000000","OBJECT_NAME":"STARLINK-2702","OBJECT_TYPE":"PAYLOAD","MEAN_MOTION_DOT":"-0.00000624","MEAN_MOTION":"15.06386905","LAUNCH_DATE":"2021-05-09","DECAY_DATE":null,"CENTER_NAME":"EARTH","RA_OF_ASC_NODE":"17.9329","REF_FRAME":"TEME","SEMIMAJOR_AXIS":"6925.389","FILE":"3519265","TLE_LINE2":"2 48441  53.0543  17.9329 0001431  96.9214 263.1938 15.06386905 66641","INCLINATION":"53.0543","RCS_SIZE":"LARGE","REV_AT_EPOCH":"6664","ARG_OF_PERICENTER":"96.9214","EPOCH":"2022-07-21T20:56:08.465280","BSTAR":"-0.00002303000000","SITE":"AFETR","MEAN_ANOMALY":"263.1938","PERIAPSIS":"546.263","APOAPSIS":"548.245","PERIOD":"95.593","OBJECT_ID":"2021-040P","CLASSIFICATION_TYPE":"U","COUNTRY_CODE":"US","EPHEMERIS_TYPE":"0","NORAD_CAT_ID":"48441","ELEMENT_SET_NO":"999","ECCENTRICITY":"0.00014310","TIME_SYSTEM":"UTC","GP_ID":"208604912","MEAN_ELEMENT_THEORY":"SGP4","TLE_LINE1":"1 48441U 21040P   22202.87232020 -.00000624  00000-0 -23030-4 0  9996"},{"GP_ID":"208603671","ELEMENT_SET_NO":"999","ECCENTRICITY":"0.00015760","NORAD_CAT_ID":"48442","TIME_SYSTEM":"UTC","MEAN_ELEMENT_THEORY":"SGP4","TLE_LINE1":"1 48442U 21040Q   22202.86862708 -.00003938  00000-0 -24577-3 0  9995","SITE":"AFETR","EPOCH":"2022-07-21T20:50:49.379712","BSTAR":"-0.00024577000000","APOAPSIS":"548.366","PERIOD":"95.593","MEAN_ANOMALY":"279.6889","PERIAPSIS":"546.183","EPHEMERIS_TYPE":"0","CLASSIFICATION_TYPE":"U","OBJECT_ID":"2021-040Q","COUNTRY_CODE":"US","TLE_LINE2":"2 48442  53.0567  17.9515 0001576  80.4278 279.6889 15.06380133 66647","FILE":"3519265","RCS_SIZE":"LARGE","INCLINATION":"53.0567","REV_AT_EPOCH":"6664","ARG_OF_PERICENTER":"80.4278","OBJECT_TYPE":"PAYLOAD","MEAN_MOTION_DDOT":"0.0000000000000","OBJECT_NAME":"STARLINK-2644","DECAY_DATE":null,"CENTER_NAME":"EARTH","MEAN_MOTION_DOT":"-0.00003938","LAUNCH_DATE":"2021-05-09","MEAN_MOTION":"15.06380133","RA_OF_ASC_NODE":"17.9515","REF_FRAME":"TEME","SEMIMAJOR_AXIS":"6925.409"},{"RA_OF_ASC_NODE":"17.9764","REF_FRAME":"TEME","SEMIMAJOR_AXIS":"6925.414","OBJECT_TYPE":"PAYLOAD","MEAN_MOTION_DDOT":"0.0000000000000","OBJECT_NAME":"STARLINK-2663","DECAY_DATE":null,"CENTER_NAME":"EARTH","MEAN_MOTION_DOT":"-0.00004711","LAUNCH_DATE":"2021-05-09","MEAN_MOTION":"15.06378551","REV_AT_EPOCH":"6664","ARG_OF_PERICENTER":"98.1550","TLE_LINE2":"2 48443  53.0547  17.9764 0001269  98.1550 261.9583 15.06378551 66646","FILE":"3519265","RCS_SIZE":"LARGE","INCLINATION":"53.0547","EPHEMERIS_TYPE":"0","CLASSIFICATION_TYPE":"U","OBJECT_ID":"2021-040R","COUNTRY_CODE":"US","SITE":"AFETR","EPOCH":"2022-07-21T20:45:31.453632","BSTAR":"-0.00029773000000","APOAPSIS":"548.158","PERIOD":"95.594","MEAN_ANOMALY":"261.9583","PERIAPSIS":"546.400","MEAN_ELEMENT_THEORY":"SGP4","TLE_LINE1":"1 48443U 21040R   22202.86494738 -.00004711  00000-0 -29773-3 0  9993","GP_ID":"208603921","ECCENTRICITY":"0.00012690","ELEMENT_SET_NO":"999","NORAD_CAT_ID":"48443","TIME_SYSTEM":"UTC"},{"GP_ID":"208604666","ECCENTRICITY":"0.00014230","ELEMENT_SET_NO":"999","NORAD_CAT_ID":"48444","TIME_SYSTEM":"UTC","MEAN_ELEMENT_THEORY":"SGP4","TLE_LINE1":"1 48444U 21040S   22202.86125307  .00000003  00000-0  19117-4 0  9997","SITE":"AFETR","BSTAR":"0.00001911700000","EPOCH":"2022-07-21T20:40:12.265248","APOAPSIS":"548.218","PERIOD":"95.593","MEAN_ANOMALY":"275.3387","PERIAPSIS":"546.247","EPHEMERIS_TYPE":"0","OBJECT_ID":"2021-040S","CLASSIFICATION_TYPE":"U","COUNTRY_CODE":"US","TLE_LINE2":"2 48444  53.0554  17.9888 0001423  84.7765 275.3387 15.06393931 66643","FILE":"3519265","RCS_SIZE":"LARGE","INCLINATION":"53.0554","REV_AT_EPOCH":"6664","ARG_OF_PERICENTER":"84.7765","OBJECT_TYPE":"PAYLOAD","MEAN_MOTION_DDOT":"0.0000000000000","OBJECT_NAME":"STARLINK-2645","DECAY_DATE":null,"CENTER_NAME":"EARTH","MEAN_MOTION_DOT":"0.00000003","LAUNCH_DATE":"2021-05-09","MEAN_MOTION":"15.06393931","REF_FRAME":"TEME","RA_OF_ASC_NODE":"17.9888","SEMIMAJOR_AXIS":"6925.367"},{"GP_ID":"208604412","ELEMENT_SET_NO":"999","ECCENTRICITY":"0.00014410","NORAD_CAT_ID":"48445","TIME_SYSTEM":"UTC","MEAN_ELEMENT_THEORY":"SGP4","TLE_LINE1":"1 48445U 21040T   22202.85757562 -.00004379  00000-0 -27542-3 0  9993","SITE":"AFETR","BSTAR":"-0.00027542000000","EPOCH":"2022-07-21T20:34:54.533568","APOAPSIS":"548.270","PERIOD":"95.593","MEAN_ANOMALY":"284.0456","PERIAPSIS":"546.274","EPHEMERIS_TYPE":"0","OBJECT_ID":"2021-040T","CLASSIFICATION_TYPE":"U","COUNTRY_CODE":"US","TLE_LINE2":"2 48445  53.0556  18.0110 0001441  76.0693 284.0456 15.06381074 66649","FILE":"3519265","RCS_SIZE":"LARGE","INCLINATION":"53.0556","REV_AT_EPOCH":"6664","ARG_OF_PERICENTER":"76.0693","OBJECT_TYPE":"PAYLOAD","MEAN_MOTION_DDOT":"0.0000000000000","OBJECT_NAME":"STARLINK-2634","DECAY_DATE":null,"CENTER_NAME":"EARTH","MEAN_MOTION_DOT":"-0.00004379","MEAN_MOTION":"15.06381074","LAUNCH_DATE":"2021-05-09","RA_OF_ASC_NODE":"18.0110","REF_FRAME":"TEME","SEMIMAJOR_AXIS":"6925.407"}];
